{"fetched_at":"2026-07-18T06:28:00.921Z","source":"https://celestrak.org/NORAD/elements/gp.php?NAME=CENTAURI&FORMAT=JSON","constellation":"myriota","records":[{"OBJECT_NAME":"CENTAURI-1","OBJECT_ID":"2018-099BD","EPOCH":"2026-07-17T02:18:42.070464","CLASSIFICATION_TYPE":"U","MEAN_MOTION":15.16635309,"ECCENTRICITY":0.0013137,"INCLINATION":97.4201,"RA_OF_ASC_NODE":249.1761,"ARG_OF_PERICENTER":217.7494,"MEAN_ANOMALY":142.2819,"EPHEMERIS_TYPE":0,"NORAD_CAT_ID":43809,"ELEMENT_SET_NO":999,"REV_AT_EPOCH":41703,"BSTAR":0.00015026312,"MEAN_MOTION_DOT":0.00002877,"MEAN_MOTION_DDOT":0},{"OBJECT_NAME":"CENTAURI-6","OBJECT_ID":"2024-066K","EPOCH":"2026-07-17T21:56:35.318688","CLASSIFICATION_TYPE":"U","MEAN_MOTION":15.06049524,"ECCENTRICITY":0.00016998,"INCLINATION":45.6065,"RA_OF_ASC_NODE":93.9922,"ARG_OF_PERICENTER":254.1906,"MEAN_ANOMALY":105.8791,"EPHEMERIS_TYPE":0,"NORAD_CAT_ID":59451,"ELEMENT_SET_NO":999,"REV_AT_EPOCH":12475,"BSTAR":0.00018858724,"MEAN_MOTION_DOT":0.0000255,"MEAN_MOTION_DDOT":0},{"OBJECT_NAME":"CENTAURI-7","OBJECT_ID":"2025-009DD","EPOCH":"2026-07-17T15:45:15.782688","CLASSIFICATION_TYPE":"U","MEAN_MOTION":14.9798175,"ECCENTRICITY":0.00026144,"INCLINATION":97.7098,"RA_OF_ASC_NODE":278.5467,"ARG_OF_PERICENTER":98.2033,"MEAN_ANOMALY":261.9486,"EPHEMERIS_TYPE":0,"NORAD_CAT_ID":62708,"ELEMENT_SET_NO":999,"REV_AT_EPOCH":8202,"BSTAR":0.00010657112,"MEAN_MOTION_DOT":0.00001199,"MEAN_MOTION_DDOT":0},{"OBJECT_NAME":"CENTAURI-8","OBJECT_ID":"2025-009DK","EPOCH":"2026-07-17T16:26:40.731360","CLASSIFICATION_TYPE":"U","MEAN_MOTION":14.97933508,"ECCENTRICITY":0.00024713,"INCLINATION":97.7037,"RA_OF_ASC_NODE":278.3937,"ARG_OF_PERICENTER":77.3766,"MEAN_ANOMALY":282.7732,"EPHEMERIS_TYPE":0,"NORAD_CAT_ID":62714,"ELEMENT_SET_NO":999,"REV_AT_EPOCH":8204,"BSTAR":0.00012576546,"MEAN_MOTION_DOT":0.00001424,"MEAN_MOTION_DDOT":0}]}
