CENTAURI-1              
1 43809U 18099BD  26198.09632026  .00002877  00000+0  15026-3 0  9995
2 43809  97.4201 249.1761 0013137 217.7494 142.2819 15.16635309417039
CENTAURI-6              
1 59451U 24066K   26198.91429767  .00002550  00000+0  18859-3 0  9998
2 59451  45.6065  93.9922 0001699 254.1906 105.8791 15.06049524124754
CENTAURI-7              
1 62708U 25009DD  26198.65643267  .00001199  00000+0  10657-3 0  9995
2 62708  97.7098 278.5467 0002614  98.2033 261.9486 14.97981750 82021
CENTAURI-8              
1 62714U 25009DK  26198.68519365  .00001424  00000+0  12577-3 0  9990
2 62714  97.7037 278.3937 0002471  77.3766 282.7732 14.97933508 82048
